{"type": "FeatureCollection", "features": [{"type": "Feature", "properties": {"norad_id": 22490, "name": "SCD 1", "group": "resource", "lat": 23.724452947138786, "lon": -94.57298363364396, "alt_km": 709.0188518487857, "timestamp": "2025-12-26T08:37:54.226261+00:00", "meta": {"OBJECT_NAME": "SCD 1", "OBJECT_ID": "1993-009B", "EPOCH": "2025-12-25T16:00:22.325184", "MEAN_MOTION": 14.46007346, "ECCENTRICITY": 0.0042177, "INCLINATION": 24.9675, "RA_OF_ASC_NODE": 198.8837, "ARG_OF_PERICENTER": 101.5468, "MEAN_ANOMALY": 317.8225, "EPHEMERIS_TYPE": 0, "CLASSIFICATION_TYPE": "U", "NORAD_CAT_ID": 22490, "ELEMENT_SET_NO": 999, "REV_AT_EPOCH": 73597, "BSTAR": 8.5981e-05, "MEAN_MOTION_DOT": 5e-06, "MEAN_MOTION_DDOT": 0}, "tle": {"line1": "1 22490U 93009B   25359.66692506  .00000500  00000+0  85981-4 0  9991", "line2": "2 22490  24.9675 198.8837 0042177 101.5468 317.8225 14.46007346735976"}}, "geometry": {"type": "Point", "coordinates": [-94.57298363364396, 23.724452947138786]}}, {"type": "Feature", "properties": {"norad_id": 25397, "name": "TECHSAT 1B (GO-32)", "group": "resource", "lat": 49.43769608345078, "lon": 174.54900059653244, "alt_km": 806.1506509338078, "timestamp": "2025-12-26T08:37:54.226288+00:00", "meta": {"OBJECT_NAME": "TECHSAT 1B (GO-32)", "OBJECT_ID": "1998-043D", "EPOCH": "2025-12-25T21:54:35.731584", "MEAN_MOTION": 14.24380587, "ECCENTRICITY": 0.0001626, "INCLINATION": 98.9934, "RA_OF_ASC_NODE": 343.4298, "ARG_OF_PERICENTER": 35.4202, "MEAN_ANOMALY": 324.7083, "EPHEMERIS_TYPE": 0, "CLASSIFICATION_TYPE": "U", "NORAD_CAT_ID": 25397, "ELEMENT_SET_NO": 999, "REV_AT_EPOCH": 42666, "BSTAR": 5.7042e-05, "MEAN_MOTION_DOT": 8.5e-07, "MEAN_MOTION_DDOT": 0}, "tle": {"line1": "1 25397U 98043D   25359.91291356  .00000085  00000+0  57042-4 0  9994", "line2": "2 25397  98.9934 343.4298 0001626  35.4202 324.7083 14.24380587426667"}}, "geometry": {"type": "Point", "coordinates": [174.54900059653244, 49.43769608345078]}}, {"type": "Feature", "properties": {"norad_id": 25504, "name": "SCD 2", "group": "resource", "lat": 24.22297120167261, "lon": 132.8529552597217, "alt_km": 723.669022210106, "timestamp": "2025-12-26T08:37:54.226306+00:00", "meta": {"OBJECT_NAME": "SCD 2", "OBJECT_ID": "1998-060A", "EPOCH": "2025-12-25T12:59:50.528256", "MEAN_MOTION": 14.45430101, "ECCENTRICITY": 0.0017068, "INCLINATION": 24.9956, "RA_OF_ASC_NODE": 62.9589, "ARG_OF_PERICENTER": 88.2247, "MEAN_ANOMALY": 42.4879, "EPHEMERIS_TYPE": 0, "CLASSIFICATION_TYPE": "U", "NORAD_CAT_ID": 25504, "ELEMENT_SET_NO": 999, "REV_AT_EPOCH": 43517, "BSTAR": 7.5618e-05, "MEAN_MOTION_DOT": 4.53e-06, "MEAN_MOTION_DDOT": 0}, "tle": {"line1": "1 25504U 98060A   25359.54155704  .00000453  00000+0  75618-4 0  9996", "line2": "2 25504  24.9956  62.9589 0017068  88.2247  42.4879 14.45430101435172"}}, "geometry": {"type": "Point", "coordinates": [132.8529552597217, 24.22297120167261]}}, {"type": "Feature", "properties": {"norad_id": 25757, "name": "DLR-TUBSAT", "group": "resource", "lat": -78.37117811115628, "lon": 33.04912808265229, "alt_km": 731.270141272701, "timestamp": "2025-12-26T08:37:54.226324+00:00", "meta": {"OBJECT_NAME": "DLR-TUBSAT", "OBJECT_ID": "1999-029B", "EPOCH": "2025-12-17T13:22:10.787520", "MEAN_MOTION": 14.52359578, "ECCENTRICITY": 0.00141996, "INCLINATION": 98.6566, "RA_OF_ASC_NODE": 336.2196, "ARG_OF_PERICENTER": 177.8976, "MEAN_ANOMALY": 182.2281, "EPHEMERIS_TYPE": 0, "CLASSIFICATION_TYPE": "U", "NORAD_CAT_ID": 25757, "ELEMENT_SET_NO": 999, "REV_AT_EPOCH": 40688, "BSTAR": 3.7650132e-05, "MEAN_MOTION_DOT": 1.05e-06, "MEAN_MOTION_DDOT": 0}, "tle": {"line1": "1 25757U 99029B   25351.55706930  .00000105  00000+0  37650-4 0  9996", "line2": "2 25757  98.6566 336.2196 0014199 177.8976 182.2281 14.52359578406886"}}, "geometry": {"type": "Point", "coordinates": [33.04912808265229, -78.37117811115628]}}, {"type": "Feature", "properties": {"norad_id": 25994, "name": "TERRA", "group": "resource", "lat": 38.14287100405895, "lon": 45.22404116775154, "alt_km": 685.2923504837399, "timestamp": "2025-12-26T08:37:54.226337+00:00", "meta": {"OBJECT_NAME": "TERRA", "OBJECT_ID": "1999-068A", "EPOCH": "2025-12-26T03:48:06.533280", "MEAN_MOTION": 14.60916328, "ECCENTRICITY": 0.0003393, "INCLINATION": 97.973, "RA_OF_ASC_NODE": 51.3492, "ARG_OF_PERICENTER": 67.7097, "MEAN_ANOMALY": 353.1976, "EPHEMERIS_TYPE": 0, "CLASSIFICATION_TYPE": "U", "NORAD_CAT_ID": 25994, "ELEMENT_SET_NO": 999, "REV_AT_EPOCH": 38434, "BSTAR": 0.00010137, "MEAN_MOTION_DOT": 4.52e-06, "MEAN_MOTION_DDOT": 0}, "tle": {"line1": "1 25994U 99068A   25360.15840895  .00000452  00000+0  10137-3 0  9992", "line2": "2 25994  97.9730  51.3492 0003393  67.7097 353.1976 14.60916328384340"}}, "geometry": {"type": "Point", "coordinates": [45.22404116775154, 38.14287100405895]}}, {"type": "Feature", "properties": {"norad_id": 27004, "name": "MAROC-TUBSAT", "group": "resource", "lat": -80.19035260486801, "lon": -103.83265660148997, "alt_km": 996.1235509964035, "timestamp": "2025-12-26T08:37:54.226349+00:00", "meta": {"OBJECT_NAME": "MAROC-TUBSAT", "OBJECT_ID": "2001-056D", "EPOCH": "2025-12-25T23:08:45.257280", "MEAN_MOTION": 13.70253529, "ECCENTRICITY": 0.00192975, "INCLINATION": 99.7917, "RA_OF_ASC_NODE": 168.6412, "ARG_OF_PERICENTER": 225.0784, "MEAN_ANOMALY": 256.5669, "EPHEMERIS_TYPE": 0, "CLASSIFICATION_TYPE": "U", "NORAD_CAT_ID": 27004, "ELEMENT_SET_NO": 999, "REV_AT_EPOCH": 20246, "BSTAR": 2.8065745e-05, "MEAN_MOTION_DOT": -2.2e-07, "MEAN_MOTION_DDOT": 0}, "tle": {"line1": "1 27004U 01056D   25359.96441270 -.00000022  00000+0  28066-4 0  9992", "line2": "2 27004  99.7917 168.6412 0019297 225.0784 256.5669 13.70253529202461"}}, "geometry": {"type": "Point", "coordinates": [-103.83265660148997, -80.19035260486801]}}, {"type": "Feature", "properties": {"norad_id": 27424, "name": "AQUA", "group": "resource", "lat": -41.2475476777203, "lon": -31.088517001059525, "alt_km": 695.0226370523178, "timestamp": "2025-12-26T08:37:54.226360+00:00", "meta": {"OBJECT_NAME": "AQUA", "OBJECT_ID": "2002-022A", "EPOCH": "2025-12-24T19:18:33.414624", "MEAN_MOTION": 14.61757572, "ECCENTRICITY": 0.00018094, "INCLINATION": 98.4055, "RA_OF_ASC_NODE": 319.881, "ARG_OF_PERICENTER": 102.1365, "MEAN_ANOMALY": 317.5475, "EPHEMERIS_TYPE": 0, "CLASSIFICATION_TYPE": "U", "NORAD_CAT_ID": 27424, "ELEMENT_SET_NO": 999, "REV_AT_EPOCH": 25779, "BSTAR": 0.00019560508, "MEAN_MOTION_DOT": 9.26e-06, "MEAN_MOTION_DDOT": 0}, "tle": {"line1": "1 27424U 02022A   25358.80455341  .00000926  00000+0  19561-3 0  9999", "line2": "2 27424  98.4055 319.8810 0001809 102.1365 317.5475 14.61757572257795"}}, "geometry": {"type": "Point", "coordinates": [-31.088517001059525, -41.2475476777203]}}, {"type": "Feature", "properties": {"norad_id": 28051, "name": "IRS-P6 (RESOURCESAT-1)", "group": "resource", "lat": 1.969470055830802, "lon": 39.84937836396045, "alt_km": 808.5171404958419, "timestamp": "2025-12-26T08:37:54.226371+00:00", "meta": {"OBJECT_NAME": "IRS-P6 (RESOURCESAT-1)", "OBJECT_ID": "2003-046A", "EPOCH": "2025-12-26T04:01:45.099840", "MEAN_MOTION": 14.36080525, "ECCENTRICITY": 0.0064959, "INCLINATION": 98.2158, "RA_OF_ASC_NODE": 39.9512, "ARG_OF_PERICENTER": 140.6147, "MEAN_ANOMALY": 311.1271, "EPHEMERIS_TYPE": 0, "CLASSIFICATION_TYPE": "U", "NORAD_CAT_ID": 28051, "ELEMENT_SET_NO": 999, "REV_AT_EPOCH": 15569, "BSTAR": 6.4824e-05, "MEAN_MOTION_DOT": 1.53e-06, "MEAN_MOTION_DDOT": 0}, "tle": {"line1": "1 28051U 03046A   25360.16788310  .00000153  00000+0  64824-4 0  9995", "line2": "2 28051  98.2158  39.9512 0064959 140.6147 311.1271 14.36080525155692"}}, "geometry": {"type": "Point", "coordinates": [39.84937836396045, 1.969470055830802]}}, {"type": "Feature", "properties": {"norad_id": 28220, "name": "SHIYAN-1 (SY-1)", "group": "resource", "lat": 70.41118913318736, "lon": 39.763021892293665, "alt_km": 476.89889548580686, "timestamp": "2025-12-26T08:37:54.226382+00:00", "meta": {"OBJECT_NAME": "SHIYAN-1 (SY-1)", "OBJECT_ID": "2004-012A", "EPOCH": "2025-12-25T18:10:37.216416", "MEAN_MOTION": 15.2847773, "ECCENTRICITY": 0.00051453, "INCLINATION": 97.8913, "RA_OF_ASC_NODE": 62.0651, "ARG_OF_PERICENTER": 270.3506, "MEAN_ANOMALY": 89.7142, "EPHEMERIS_TYPE": 0, "CLASSIFICATION_TYPE": "U", "NORAD_CAT_ID": 28220, "ELEMENT_SET_NO": 999, "REV_AT_EPOCH": 18455, "BSTAR": 0.00048278307, "MEAN_MOTION_DOT": 0.00013314, "MEAN_MOTION_DDOT": 0}, "tle": {"line1": "1 28220U 04012A   25359.75737519  .00013314  00000+0  48278-3 0  9992", "line2": "2 28220  97.8913  62.0651 0005145 270.3506  89.7142 15.28477730184559"}}, "geometry": {"type": "Point", "coordinates": [39.763021892293665, 70.41118913318736]}}, {"type": "Feature", "properties": {"norad_id": 28376, "name": "AURA", "group": "resource", "lat": 47.282816615035394, "lon": -58.468639345460275, "alt_km": 685.0677787132126, "timestamp": "2025-12-26T08:37:54.226395+00:00", "meta": {"OBJECT_NAME": "AURA", "OBJECT_ID": "2004-026A", "EPOCH": "2025-12-26T03:28:54.881760", "MEAN_MOTION": 14.6097635, "ECCENTRICITY": 0.0001445, "INCLINATION": 98.3204, "RA_OF_ASC_NODE": 310.4354, "ARG_OF_PERICENTER": 90.5232, "MEAN_ANOMALY": 269.6134, "EPHEMERIS_TYPE": 0, "CLASSIFICATION_TYPE": "U", "NORAD_CAT_ID": 28376, "ELEMENT_SET_NO": 999, "REV_AT_EPOCH": 14094, "BSTAR": 0.0002242, "MEAN_MOTION_DOT": 1.051e-05, "MEAN_MOTION_DDOT": 0}, "tle": {"line1": "1 28376U 04026A   25360.14507965  .00001051  00000+0  22420-3 0  9990", "line2": "2 28376  98.3204 310.4354 0001445  90.5232 269.6134 14.60976350140949"}}, "geometry": {"type": "Point", "coordinates": [-58.468639345460275, 47.282816615035394]}}]}